satname,norad_id,inclination_deg,eccentricity,mean_motion_rev_per_day,perigee_km,apogee_km,l1,l2
STARLINK-1008,44714,53.1578,0.0001475,15.3102443,471.7440682096585,473.7650812241991,1 44714U 19074B   26069.68562873  .00000032  00000+0  12993-4 0  9991,2 44714  53.1578 174.1222 0001475  99.2184 260.8984 15.31024430349028
STARLINK-1012,44718,53.1633,0.0001031,15.30187826,474.54483468393664,475.9580033759412,1 44718U 19074F   26069.66659395  .00001219  00000+0  53296-4 0  9998,2 44718  53.1633 174.2683 0001031  85.6173 274.4945 15.30187826349016
STARLINK-1017,44723,53.0555,0.0001387,15.24307344,491.9131259061123,493.8191421754955,1 44723U 19074L   26069.52698590  .00058555  00000+0  23594-2 0  9990,2 44723  53.0555 167.6003 0001387  49.8973 310.2146 15.24307344349092
STARLINK-1019,44724,53.0413,8.25e-05,15.81702287,325.07336318228135,326.1794841471865,1 44724U 19074M   26069.83334490  .00106479  00000+0  51617-3 0  9998,2 44724  53.0413 130.9582 0000825 217.8763 251.3951 15.81702287  5817
STARLINK-1020,44725,53.1605,0.0001126,15.301905,474.4717442167239,476.0151254906541,1 44725U 19074N   26069.64864066  .00003005  00000+0  11358-3 0  9994,2 44725  53.1605 199.3932 0001126 101.5019 258.6108 15.30190500348657
STARLINK-1031,44736,53.0376,0.0005101,15.91316269,295.19270989574215,302.00431546577875,1 44736U 19074Z   26069.83334490  .00198588  25693-4  61482-3 0  9994,2 44736  53.0376 114.2099 0005101   9.7743   0.3274 15.91316269  5984
STARLINK-1036,44741,53.049,0.000344,15.56207398,396.3139287679942,400.976354881569,1 44741U 19074AE  26069.83334490  .00138319  00000+0  19113-2 0  9999,2 44741  53.0490 183.0146 0003440 296.9601  63.7851 15.56207398  5955
STARLINK-1039,44744,53.0512,0.0003014,15.21846254,498.19872427007795,502.3450291409554,1 44744U 19074AH  26069.79760837  .00063241  00000+0  27375-2 0  9995,2 44744  53.0512 210.0042 0003014 178.3403 181.7603 15.21846254348520
STARLINK-1042,44747,53.0439,0.0001851,15.49842508,415.9285676307891,418.4441963468016,1 44747U 19074AL  26069.23377286  .00027210  00000+0  48636-3 0  9999,2 44747  53.0439  92.1834 0001851 108.9254 251.1954 15.49842508350150
STARLINK-1043,44748,53.0524,0.0002149,15.53748242,404.3359113434117,407.25164479182513,1 44748U 19074AM  26069.62271892  .00038368  00000+0  59284-3 0  9996,2 44748  53.0524 189.9977 0002149  71.2565 288.8678 15.53748242348799
STARLINK-1046,44751,53.0545,0.0004656,15.43690174,432.0571542613343,438.4017611067293,1 44751U 19074AQ  26069.64622368  .00029439  00000+0  64902-3 0  9992,2 44751  53.0545 206.3063 0004656 177.3391 182.7640 15.43690174348561
STARLINK-1047,44752,53.0693,0.000213,15.32606191,466.58178240387497,469.49825381359005,1 44752U 19074AR  26069.40927304  .00012823  00000+0  41248-3 0  9992,2 44752  53.0693 142.6466 0002130 208.1151 151.9735 15.32606191349453
STARLINK-1048,44753,53.0519,3.44e-05,15.53594551,406.0077931464257,406.47455836491827,1 44753U 19074AS  26069.48635502  .00130804  00000+0  19915-2 0  9992,2 44753  53.0519 164.9983 0000344 180.2286 179.8723 15.53594551349125
STARLINK-1053,44758,53.0267,0.0007101,15.92742549,289.87364596332645,299.35028404342575,1 44758U 19074AX  26069.83334490  .00323032  50926-4  92160-3 0  9996,2 44758  53.0267  77.5904 0007101  62.9794  84.2672 15.92742549  5924
STARLINK-1063,44768,53.1603,0.0001218,15.29959368,475.0988215598927,476.76847316959083,1 44768U 19074BH  26068.75225385 -.00812325  00000+0 -29858-1 0  9994,2 44768  53.1603 219.1040 0001218  60.1573 299.9548 15.29959368348323
STARLINK-1067,44771,53.0523,0.0004338,15.5774488,391.24748728986015,397.12315413531087,1 44771U 19074BL  26069.59263972  .00136183  00000+0  17775-2 0  9990,2 44771  53.0523 199.7918 0004338 341.6498  18.4356 15.57744880348652
STARLINK-1068,44772,53.0463,0.0003323,15.64062372,373.6923322386683,378.1810896269544,1 44772U 19074BM  26069.83334490  .00167054  00000+0  17031-2 0  9998,2 44772  53.0463 174.2859 0003323 306.2900  34.0491 15.64062372  5961
STARLINK-1112,44925,53.029,0.0008651,16.20664551,212.04206721392347,223.45426773068266,1 44925U 20001M   26069.58341603  .02177284  11843-4  10337-2 0  9998,2 44925  53.0290 235.9448 0008651 308.2968  51.7291 16.20664551341476
STARLINK-1114,44927,53.0504,0.0008227,15.50513467,409.63696524761144,420.8147645054787,1 44927U 20001P   26069.83942008  .00093071  00000+0  15905-2 0  9997,2 44927  53.0504 323.8453 0008227 123.9010 236.2781 15.50513467340270
STARLINK-1123,44930,53.1518,0.0001648,15.28223106,479.9936744317192,482.254486883905,1 44930U 20001S   26069.74884732  .00014052  00000+0  51584-3 0  9996,2 44930  53.1518 340.2019 0001648  75.7647 284.3536 15.28223106340030
STARLINK-1094,44941,53.1618,0.0001199,15.30208887,474.366820836045,476.01024829923426,1 44941U 20001AD  26069.85914091 -.00005266  00000+0 -16576-3 0  9993,2 44941  53.1618 314.1288 0001199 105.2955 254.8179 15.30208887340412
STARLINK-1122,44949,53.1605,0.0001213,15.30181262,474.43969988809204,476.10233667332704,1 44949U 20001AM  26069.82017436  .00005924  00000+0  21209-3 0  9993,2 44949  53.1605 314.3580 0001213  95.8421 264.2718 15.30181262340402
STARLINK-1080,44961,53.0529,0.0007491,15.47453665,419.082377070883,429.2736053907447,1 44961U 20001AZ  26069.84354827  .00112592  00000+0  21354-2 0  9997,2 44961  53.0529 282.6779 0007491 126.7928 233.3767 15.47453665340854
STARLINK-1090,44968,53.1213,0.0001556,15.21764893,499.4467248899982,501.5873620283237,1 44968U 20001BG  26069.83334490  .01263581  00000+0  50249-1 0  9997,2 44968  53.1213 301.0143 0001556  90.0404 233.1071 15.21764893  5664
STARLINK-1132,45044,53.1568,0.0004288,15.43602718,432.56512359841145,438.40848737399574,1 45044U 20006A   26069.49934846  .00051137  00000+0  11209-2 0  9996,2 45044  53.1568 250.1187 0004288 198.0099 162.0757 15.43602718337052
STARLINK-1131,45047,53.1595,0.0001202,15.30194725,474.4070448518214,476.05459447566864,1 45047U 20006D   26069.84164580  .00003408  00000+0  12716-3 0  9991,2 45047  53.1595 275.6287 0001202  82.3034 277.8103 15.30194725336728
STARLINK-1134,45048,53.0335,0.0008286,15.43982149,428.7256250591927,440.01531243640056,1 45048U 20006E   26069.72757970  .00093879  00000+0  20111-2 0  9998,2 45048  53.0335 233.3835 0008286 180.7220 179.3775 15.43982149337304
STARLINK-1156,45054,53.1598,0.0001076,15.30193196,474.497962143545,475.97280788080025,1 45054U 20006L   26069.80267186  .00001712  00000+0  69910-4 0  9996,2 45054  53.1598 275.8236 0001076  91.1403 268.9721 15.30193196336719
STARLINK-1159,45057,53.0441,0.0001628,15.82201745,323.1244094088124,325.306695399875,1 45057U 20006P   26069.83334490  .00190166  00000+0  88939-3 0  9998,2 45057  53.0441 229.0157 0001628 139.8753 233.7939 15.82201745  6017
STARLINK-1166,45060,53.0529,0.0004423,15.45515889,426.85147784035325,432.8738343361292,1 45060U 20006S   26069.87059359  .00098740  00000+0  20077-2 0  9997,2 45060  53.0529 267.0624 0004423 150.8336 209.2918 15.45515889336843
STARLINK-1169,45061,53.1611,0.0001371,15.30183708,474.3241135882745,476.20331606427953,1 45061U 20006T   26069.83533418 -.00000238  00000+0  41023-5 0  9990,2 45061  53.1611 275.6695 0001371  84.0307 276.0850 15.30183708336724
STARLINK-1171,45062,53.0454,0.0001229,15.62984813,378.2101768631492,379.87109112558574,1 45062U 20006U   26069.83334490  .00167678  00000+0  17833-2 0  9990,2 45062  53.0454 243.8424 0001229  69.5737 141.8840 15.62984813  5792
STARLINK-1133,45064,53.1617,0.000153,15.30195484,474.17998848479874,476.2771183441437,1 45064U 20006W   26069.77579602  .00001772  00000+0  71958-4 0  9993,2 45064  53.1617 252.7582 0001530 101.6634 258.4538 15.30195484337047
STARLINK-1167,45071,53.1599,9.79e-05,15.29359908,477.0533920081498,478.39576970568214,1 45071U 20006AD  26069.86968302  .00002036  00000+0  82841-4 0  9997,2 45071  53.1599 252.3777 0000979  97.4136 262.6976 15.29359908337056
STARLINK-1168,45072,53.1594,0.0001173,15.29354927,476.9352725743047,478.5436611934356,1 45072U 20006AE  26069.87947506 -.00001386  00000+0 -35701-4 0  9994,2 45072  53.1594 252.3917 0001173  97.4868 262.6266 15.29354927337055
STARLINK-1172,45074,53.16,0.0001178,15.30185421,474.4512700293735,476.06593003273974,1 45074U 20006AG  26069.81794463  .00000581  00000+0  31762-4 0  9999,2 45074  53.1600 252.5822 0001178  96.1125 264.0010 15.30185421337044
STARLINK-1153,45080,53.1598,7.42e-05,15.29355317,477.2295953944431,478.24700728916287,1 45080U 20006AN  26069.78873409  .00003503  00000+0  13365-3 0  9995,2 45080  53.1598 252.6673 0000742 101.7235 258.3849 15.29355317337040
STARLINK-1151,45081,53.0533,9.69e-05,15.65539848,371.03255272038587,372.3406685361242,1 45081U 20006AP  26069.84903772  .00070890  00000+0  69287-3 0  9997,2 45081  53.0533 234.0949 0000969  25.2983 334.8079 15.65539848337307
STARLINK-1185,45087,53.1593,0.0001032,15.32527474,467.5678985688164,468.980997891731,1 45087U 20006AV  26069.83334490  .00141837  00000+0  43815-2 0  9995,2 45087  53.1593 237.0917 0001032  82.1051 332.3659 15.32527474  5752
STARLINK-1183,45088,53.16,0.0001272,15.30186691,474.38305654440956,476.12655942036054,1 45088U 20006AW  26069.73253519  .00001627  00000+0  67058-4 0  9996,2 45088  53.1600 237.7403 0001272  72.9507 287.1633 15.30186691337249
STARLINK-1152,45096,53.0382,0.0003328,15.38707672,447.657429355977,452.2021906247064,1 45096U 20006BE  26069.83334490  .00118887  00000+0  30244-2 0  9996,2 45096  53.0382 201.0924 0003328 217.3568 148.9271 15.38707672  5747
STARLINK-1184,45098,53.0525,0.0005482,15.10310662,531.4618919063305,539.0417313994276,1 45098U 20006BG  26069.85748248  .00037419  00000+0  22629-2 0  9999,2 45098  53.0525 240.1462 0005482 135.9581 224.1848 15.10310662337218
STARLINK-1193,45100,53.0515,0.0002153,15.55970485,397.87382635287213,400.7922049416102,1 45100U 20006BJ  26069.83334490  .00174378  00000+0  24182-2 0  9993,2 45100  53.0515 224.8941 0002153   3.4435 147.2084 15.55970485  5944
